KUZGTU 1 (RS47S)        
1 57217U 23091AV  26194.25741488  .00007483  00000+0  25647-3 0  9996
2 57217  97.5056 259.0110 0010263  13.2377 346.9131 15.30442883168368
SONATE-2                
1 59112U 24043Q   26193.92942654  .00032561  00000+0  39252-3 0  9993
2 59112  97.5542 345.9462 0006908 113.4535 246.7449 15.60702194131905
MESAT1                  
1 60209U 24125G   26193.56016104  .00047409  00000+0  45928-3 0  9999
2 60209  97.2256  51.6710 0010956 120.7531 239.4810 15.66181054113537
OOV-CUBE (TUBSAT-30)    
1 60240U 24128F   26194.27100790  .00001084  00000+0  94851-4 0  9990
2 60240  61.9937 134.6127 0041377 139.5955 220.8222 15.02869223110033
COLIBRI-S (RS67S)       
1 61746U 24199M   26194.30197915  .00014506  00000+0  27120-3 0  9996
2 61746  97.2961  68.4093 0008747 168.8507 191.2939 15.48796531141459
HORS 3 (RS81S)          
1 61753U 24199U   26194.26544424  .00025825  00000+0  36089-3 0  9990
2 61753  97.2940  70.6556 0006960 161.5091 198.6418 15.56808129141613
HORS 4 (RS82S)          
1 61754U 24199V   26194.26983126  .00038708  00000+0  43922-3 0  9995
2 61754  97.2884  72.0430 0006823 153.6241 206.5365 15.62244070141712
SIT-2086                
1 61764U 24199AF  26194.27539709  .00025093  00000+0  37573-3 0  9999
2 61764  97.2898  71.0516 0008033 150.1121 210.0593 15.54922798138480
HYPERVIEW 1G (RS66S)    
1 61772U 24199AP  26194.28399952  .00176251  00000+0  75239-3 0  9997
2 61772  97.2815  75.4767 0008225 152.1274 208.0438 15.84681150138794
ALTAIR (RS65S)          
1 61779U 24199AW  26194.27943576  .00006550  00000+0  18005-3 0  9992
2 61779  97.2999  63.4625 0011815 203.6227 156.4477 15.37480728141129
ASRTU-1 (AO-123)        
1 61781U 24199AY  26194.29112831  .00004611  00000+0  13340-3 0  9992
2 61781  97.2969  62.7287 0012801 207.8418 152.2142 15.36036267137930
SAMSAT-IONOSPHERE (RS7*)
1 61784U 24199BB  26194.25081197  .00034485  00000+0  42658-3 0  9997
2 61784  97.2907  70.7908 0008974 166.6893 193.4603 15.59989785141626
RTU MIREA 1 (RS51S)     
1 61785U 24199BC  26194.27635333  .00046796  00000+0  49274-3 0  9996
2 61785  97.2893  71.7951 0009083 161.2246 198.9351 15.64104034138544
TEVEL2-4                
1 63213U 25052D   26193.66997238  .00012793  00000+0  37280-3 0  9994
2 63213  97.3881  90.1160 0003752  57.2753 302.8852 15.35507889 74028
TEVEL2-5                
1 63214U 25052E   26194.14966326  .00011850  00000+0  34745-3 0  9999
2 63214  97.3876  90.5369 0003788  56.8499 303.3107 15.35333367 74093
TEVEL2-6                
1 63215U 25052F   26193.70635362  .00012019  00000+0  35290-3 0  9998
2 63215  97.3879  90.0772 0003781  60.8657 299.2965 15.35286778 74025
TEVEL2-1                
1 63217U 25052H   26193.67932412  .00011444  00000+0  34224-3 0  9999
2 63217  97.3853  89.6437 0004432  65.2904 294.8800 15.34718554 74007
TEVEL2-3                
1 63218U 25052J   26193.67298572  .00011907  00000+0  35527-3 0  9993
2 63218  97.3855  89.6625 0004207  66.7009 293.4677 15.34780805 74006
TEVEL2-2                
1 63219U 25052K   26193.67946927  .00011375  00000+0  34007-3 0  9999
2 63219  97.3850  89.6469 0004491  65.9197 294.2516 15.34729067 74006
OTP-2                   
1 63235U 25052AB  26194.15971094  .00004151  00000+0  17254-3 0  9993
2 63235  97.3843  86.2042 0008274  76.7823 283.4337 15.24321389 73829
TEVEL2-9                
1 63237U 25052AD  26194.14738760  .00010512  00000+0  33505-3 0  9990
2 63237  97.3915  89.4327 0007831  62.8126 297.3913 15.32691499 74008
TEVEL2-7                
1 63238U 25052AE  26194.19344973  .00010302  00000+0  33165-3 0  9994
2 63238  97.3914  89.3836 0007879  62.2536 297.9504 15.32377628 74000
TEVEL2-8                
1 63239U 25052AF  26193.67954412  .00011622  00000+0  37402-3 0  9996
2 63239  97.3914  88.8465 0007981  64.8281 295.3788 15.32353925 73922
INNOSAT 16 (RS92S7)     
1 64878U 25155C   26194.23820926  .00003301  00000+0  13207-3 0  9997
2 64878  97.4576 161.2901 0012471  94.3491 265.9172 15.25725711 84648
GEOSCAN 6 (RS92S6)      
1 64879U 25155D   26194.27008870  .00006338  00000+0  21637-3 0  9997
2 64879  97.4566 162.9340 0010002  87.5518 272.6868 15.30630900 84755
GEOSCAN 1 (RS92S1)      
1 64880U 25155E   26194.26195355  .00006865  00000+0  22955-3 0  9992
2 64880  97.4562 163.0973 0009956  87.8249 272.4133 15.31276183 84761
239ALFEROV (RS61S)      
1 64881U 25155F   26194.25819486  .00008983  00000+0  27827-3 0  9996
2 64881  97.4561 163.7457 0009639  87.5878 272.6468 15.33635111 84808
GEOSCAN 2 (RS92S2)      
1 64890U 25155Q   26194.25115207  .00006718  00000+0  22296-3 0  9995
2 64890  97.4560 163.2490 0009110  77.8734 282.3528 15.31534131 84775
GEOSCAN 5 (RS92S5)      
1 64891U 25155R   26194.24189765  .00008942  00000+0  27445-3 0  9997
2 64891  97.4553 163.8765 0008650  91.9295 268.2938 15.33941607 84811
GEOSCAN 4 (RS92S4)      
1 64892U 25155S   26194.28859957  .00008804  00000+0  26885-3 0  9993
2 64892  97.4558 163.9800 0008587  91.9339 268.2888 15.34109579 84826
