OBJECT_NAME,OBJECT_ID,EPOCH,MEAN_MOTION,ECCENTRICITY,INCLINATION,RA_OF_ASC_NODE,ARG_OF_PERICENTER,MEAN_ANOMALY,EPHEMERIS_TYPE,CLASSIFICATION_TYPE,NORAD_CAT_ID,ELEMENT_SET_NO,REV_AT_EPOCH,BSTAR,MEAN_MOTION_DOT,MEAN_MOTION_DDOT
KUZGTU 1 (RS47S),2023-091AV,2026-07-13T06:10:40.645632,15.30442883,.00102637,97.5056,259.0110,13.2377,346.9131,0,U,57217,999,16836,.25647039E-3,.7483E-4,0
SONATE-2,2024-043Q,2026-07-12T22:18:22.453056,15.60702194,.00069082,97.5542,345.9462,113.4535,246.7449,0,U,59112,999,13190,.39252203E-3,.32561E-3,0
MESAT1,2024-125G,2026-07-12T13:26:37.913856,15.66181054,.00109567,97.2256,51.6710,120.7531,239.4810,0,U,60209,999,11353,.45928267E-3,.47409E-3,0
OOV-CUBE (TUBSAT-30),2024-128F,2026-07-13T06:30:15.082560,15.02869223,.00413775,61.9937,134.6127,139.5955,220.8222,0,U,60240,999,11003,.9485134E-4,.1084E-4,0
COLIBRI-S (RS67S),2024-199M,2026-07-13T07:14:50.998560,15.48796531,.00087475,97.2961,68.4093,168.8507,191.2939,0,U,61746,999,14145,.27120439E-3,.14506E-3,0
HORS 3 (RS81S),2024-199U,2026-07-13T06:22:14.382336,15.56808129,.00069601,97.2940,70.6556,161.5091,198.6418,0,U,61753,999,14161,.36089348E-3,.25825E-3,0
HORS 4 (RS82S),2024-199V,2026-07-13T06:28:33.420864,15.62244070,.00068236,97.2884,72.0430,153.6241,206.5365,0,U,61754,999,14171,.43921523E-3,.38708E-3,0
SIT-2086,2024-199AF,2026-07-13T06:36:34.308576,15.54922798,.00080335,97.2898,71.0516,150.1121,210.0593,0,U,61764,999,13848,.37572659E-3,.25093E-3,0
HYPERVIEW 1G (RS66S),2024-199AP,2026-07-13T06:48:57.558528,15.84681150,.00082252,97.2815,75.4767,152.1274,208.0438,0,U,61772,999,13879,.75239459E-3,.176251E-2,0
ALTAIR (RS65S),2024-199AW,2026-07-13T06:42:23.249664,15.37480728,.00118151,97.2999,63.4625,203.6227,156.4477,0,U,61779,999,14112,.18004984E-3,.655E-4,0
ASRTU-1 (AO-123),2024-199AY,2026-07-13T06:59:13.485984,15.36036267,.00128016,97.2969,62.7287,207.8418,152.2142,0,U,61781,999,13793,.13339607E-3,.4611E-4,0
SAMSAT-IONOSPHERE (RS75S),2024-199BB,2026-07-13T06:01:10.154208,15.59989785,.00089744,97.2907,70.7908,166.6893,193.4603,0,U,61784,999,14162,.42658355E-3,.34485E-3,0
RTU MIREA 1 (RS51S),2024-199BC,2026-07-13T06:37:56.927712,15.64104034,.00090839,97.2893,71.7951,161.2246,198.9351,0,U,61785,999,13854,.49273887E-3,.46796E-3,0
TEVEL2-4,2025-052D,2026-07-12T16:04:45.613632,15.35507889,.00037521,97.3881,90.1160,57.2753,302.8852,0,U,63213,999,7402,.37280294E-3,.12793E-3,0
TEVEL2-5,2025-052E,2026-07-13T03:35:30.905664,15.35333367,.00037888,97.3876,90.5369,56.8499,303.3107,0,U,63214,999,7409,.34745321E-3,.1185E-3,0
TEVEL2-6,2025-052F,2026-07-12T16:57:08.952768,15.35286778,.00037818,97.3879,90.0772,60.8657,299.2965,0,U,63215,999,7402,.35290328E-3,.12019E-3,0
TEVEL2-1,2025-052H,2026-07-12T16:18:13.603968,15.34718554,.00044329,97.3853,89.6437,65.2904,294.8800,0,U,63217,999,7400,.3422388E-3,.11444E-3,0
TEVEL2-3,2025-052J,2026-07-12T16:09:05.966208,15.34780805,.00042079,97.3855,89.6625,66.7009,293.4677,0,U,63218,999,7400,.35526735E-3,.11907E-3,0
TEVEL2-2,2025-052K,2026-07-12T16:18:26.144928,15.34729067,.00044915,97.3850,89.6469,65.9197,294.2516,0,U,63219,999,7400,.34006669E-3,.11375E-3,0
OTP-2,2025-052AB,2026-07-13T03:49:59.025216,15.24321389,.00082745,97.3843,86.2042,76.7823,283.4337,0,U,63235,999,7382,.17253532E-3,.4151E-4,0
TEVEL2-9,2025-052AD,2026-07-13T03:32:14.288640,15.32691499,.00078316,97.3915,89.4327,62.8126,297.3913,0,U,63237,999,7400,.33504592E-3,.10512E-3,0
TEVEL2-7,2025-052AE,2026-07-13T04:38:34.056672,15.32377628,.00078797,97.3914,89.3836,62.2536,297.9504,0,U,63238,999,7400,.33165003E-3,.10302E-3,0
TEVEL2-8,2025-052AF,2026-07-12T16:18:32.611968,15.32353925,.00079812,97.3914,88.8465,64.8281,295.3788,0,U,63239,999,7392,.37402212E-3,.11622E-3,0
INNOSAT 16 (RS92S7),2025-155C,2026-07-13T05:43:01.280064,15.25725711,.00124716,97.4576,161.2901,94.3491,265.9172,0,U,64878,999,8464,.13207492E-3,.3301E-4,0
GEOSCAN 6 (RS92S6),2025-155D,2026-07-13T06:28:55.663680,15.30630900,.00100028,97.4566,162.9340,87.5518,272.6868,0,U,64879,999,8475,.21637261E-3,.6338E-4,0
GEOSCAN 1 (RS92S1),2025-155E,2026-07-13T06:17:12.786720,15.31276183,.00099569,97.4562,163.0973,87.8249,272.4133,0,U,64880,999,8476,.22955161E-3,.6865E-4,0
239ALFEROV (RS61S),2025-155F,2026-07-13T06:11:48.035904,15.33635111,.00096397,97.4561,163.7457,87.5878,272.6468,0,U,64881,999,8480,.27827489E-3,.8983E-4,0
GEOSCAN 2 (RS92S2),2025-155Q,2026-07-13T06:01:39.538848,15.31534131,.00091102,97.4560,163.2490,77.8734,282.3528,0,U,64890,999,8477,.22295844E-3,.6718E-4,0
GEOSCAN 5 (RS92S5),2025-155R,2026-07-13T05:48:19.956960,15.33941607,.00086506,97.4553,163.8765,91.9295,268.2938,0,U,64891,999,8481,.27445301E-3,.8942E-4,0
GEOSCAN 4 (RS92S4),2025-155S,2026-07-13T06:55:35.002848,15.34109579,.00085878,97.4558,163.9800,91.9339,268.2888,0,U,64892,999,8482,.26885215E-3,.8804E-4,0
